RAVAN                   
1 41849U 16067B   19023.18751351  .00000212  00000-0  23120-4 0  9999
2 41849  97.9197 120.1955 0009126 146.9017 213.2777 14.98060857120065
CELTEE 1                
1 41850U 16067C   19023.21975156  .00000475  00000-0  46602-4 0  9997
2 41850  97.9185 119.2553 0009801 142.7763 217.4139 14.96936328120015
OPTICUBE 04             
1 41851U 16067D   19023.47641046  .00000674  00000-0  64208-4 0  9997
2 41851  97.9175 119.3610 0009924 144.2336 215.9551 14.96752946120045
AEROCUBE 8D             
1 41852U 16067E   19023.26799657  .00000589  00000-0  56937-4 0  9992
2 41852  97.9184 118.9777 0010647 146.6128 213.5766 14.96624882119995
AEROCUBE 8C             
1 41853U 16067F   19022.88625522  .00000446  00000-0  44432-4 0  9998
2 41853  97.9190 118.5392 0010886 147.6655 212.5235 14.96594167119939
PROMETHEUS 2-1          
1 41854U 16067G   19022.80570612  .00000844  00000-0  79016-4 0  9998
2 41854  97.9192 118.5321 0011361 148.8692 211.3204 14.96761349119927
PROMETHEUS 2-3          
1 41855U 16067H   19023.20953190  .00000923  00000-0  85894-4 0  9999
2 41855  97.9196 118.9513 0011544 147.6550 212.5381 14.96764511119981
INS-1B                  
1 41954U 17008G   19023.18358242  .00000895  00000-0  40410-4 0  9992
2 41954  97.4198  90.0324 0007873 306.5535  53.4977 15.23558753107493
BGUSAT                  
1 41999U 17008BD  19023.42913606  .00001662  00000-0  68511-4 0  9994
2 41999  97.4256  92.0654 0007062 324.0225  36.0536 15.25479061106994
DIDO-2                  
1 42000U 17008BE  19022.91056269  .00000656  00000-0  30350-4 0  9996
2 42000  97.4213  90.2816 0007589 330.1935  29.8869 15.23616748106858
PEASSS                  
1 42015U 17008BV  19022.76649471  .00000791  00000-0  35094-4 0  9998
2 42015  97.4216  90.8786 0005687 341.4872  18.6158 15.24507527107360
AL-FARABI 1             
1 42016U 17008BW  19023.41220473  .00001178  00000-0  50031-4 0  9997
2 42016  97.4227  91.9032 0005454 338.7423  21.3587 15.25049581107608
NAYIF-1 (EO-88)         
1 42017U 17008BX  19022.87777733  .00001039  00000-0  44409-4 0  9991
2 42017  97.4226  91.3821 0005502 341.2661  18.8374 15.25076740107540
HAVELSAT                
1 42700U 98067LH  19023.61705481  .00164483  21858-4  39690-3 0  9994
2 42700  51.6229 292.3520 0002769 126.0805 234.0460 15.96063495 96876
CXBN-2                  
1 42704U 98067LM  19023.14742865  .00128729  17679-4  32657-3 0  9998
2 42704  51.6267 296.8070 0002626 151.3306 208.7847 15.95248587 96693
PHOENIX                 
1 42706U 98067LP  19023.19842661  .00045280  00000-0  21850-3 0  9999
2 42706  51.6283 305.5445 0000811 116.6396 243.4689 15.82109594 96571
X-CUBESAT               
1 42707U 98067LQ  19023.58221220  .00429736  99806-4  52362-3 0  9995
2 42707  51.6186 288.1816 0004580 185.9004 174.1956 16.07467072 96825
QBEE50-LTU-OC           
1 42708U 98067LR  19023.65032833  .00182536  24305-4  44043-3 0  9997
2 42708  51.6231 293.3527 0003023 153.9160 206.2001 15.96025771 96723
ALTAIR PATHFINDER       
1 42711U 98067LS  19023.42855563  .00019428  00000-0  15130-3 0  9995
2 42711  51.6347 323.0385 0001846 309.5368  50.5467 15.71741286 96026
SHARC                   
1 42712U 98067LT  19023.30835141  .00058472  00000-0  32219-3 0  9992
2 42712  51.6331 320.7590 0001271  81.3999 278.7146 15.79103108 96288
ZA-AEROSAT              
1 42713U 98067LU  19023.24519752  .00044011  00000-0  22940-3 0  9997
2 42713  51.6347 310.4245 0000218  51.2833 308.8188 15.80447755 96172
CSUNSAT 1               
1 42715U 98067LW  19023.21495302  .00052706  00000-0  24536-3 0  9993
2 42715  51.6324 307.9564 0000307 328.0739  32.0245 15.82814131 96205
SPACECUBE               
1 42717U 98067LY  19023.20336325  .00148041  19747-4  37332-3 0  9991
2 42717  51.6182 296.2557 0003037 131.1766 228.9504 15.95292828 95724
NJUST-1                 
1 42722U 98067MB  19023.65965948  .00030180  00000-0  17919-3 0  9996
2 42722  51.6392 312.3522 0003158  18.6224  54.1351 15.77742655 95252
LILACSAT-1              
1 42725U 98067ME  19023.62991700  .00078572  00000-0  27920-3 0  9991
2 42725  51.6345 301.5215 0002379  88.1426 338.9112 15.88256654 95307
NSIGHT-1                
1 42726U 98067MF  19023.29789224  .00008621  00000-0  88433-4 0  9996
2 42726  51.6394 334.3426 0004515 350.2086   9.8821 15.65861861 94845
SNUSAT-1                
1 42727U 98067MG  19023.65315860  .00098586  00000-0  35980-3 0  9995
2 42727  51.6294 301.7249 0000884  10.2384 349.8638 15.87632907 95266
POLYITAN-2-SAU          
1 42732U 98067MM  19023.20187964  .00349874  67931-4  46248-3 0  9992
2 42732  51.6234 291.7456 0003708 192.7510 167.3409 16.06202979 95240
SNUSAT-1B               
1 42733U 98067MN  19023.59298764  .00124699  16904-4  38898-3 0  9998
2 42733  51.6258 298.2712 0000529 166.3947 193.7074 15.91353690 95198
BEEAGLESAT              
1 42736U 98067MR  19023.63941408  .00061959  00000-0  27139-3 0  9997
2 42736  51.6305 304.7112 0002559  30.7100 329.4052 15.84038254 95171
UCLSAT                  
1 42765U 17036A   19023.70177566  .00001026  00000-0  47398-4 0  9999
2 42765  97.3728  84.6952 0012320  30.5484 329.6467 15.22374523 88252
LITUANICASAT-2          
1 42768U 17036D   19023.21402443  .00001339  00000-0  61178-4 0  9992
2 42768  97.3755  83.7718 0015750  20.9683 339.2195 15.22198959 88026
AALTO-1                 
1 42775U 17036L   19023.69832681  .00000630  00000-0  31360-4 0  9996
2 42775  97.3717  83.7601 0014528  19.0964 341.0813 15.21089467 88015
URSA MAIOR              
1 42776U 17036M   19023.14465612  .00000584  00000-0  29220-4 0  9993
2 42776  97.3725  83.3219 0014374  21.0788 339.1037 15.21203597 87930
COMPASS 2               
1 42777U 17036N   19022.85282338  .00001115  00000-0  51173-4 0  9996
2 42777  97.3756  83.8455 0013208  24.6898 335.4968 15.22406455 87928
DIAMOND RED             
1 42783U 17036U   19023.63205021  .00000797  00000-0  37999-4 0  9999
2 42783  97.3728  84.3406 0012969  30.8879 329.3117 15.21893463 88036
PEGASUS                 
1 42784U 17036V   19022.91422385  .00000762  00000-0  36217-4 0  9998
2 42784  97.3732  83.7896 0012945  33.0447 327.1596 15.22147054 87932
DIAMOND GREEN           
1 42785U 17036W   19022.84183853  .00000702  00000-0  33841-4 0  9999
2 42785  97.3731  83.5858 0012961  34.1027 326.1040 15.21891458 87983
DIAMOND BLUE            
1 42786U 17036X   19023.10384940  .00000680  00000-0  32873-4 0  9999
2 42786  97.3730  83.8419 0012780  33.5692 326.6351 15.21892486 87947
NUDTSAT                 
1 42787U 17036Y   19023.65353687  .00001291  00000-0  57868-4 0  9994
2 42787  97.3763  84.9728 0013365  24.9356 335.2513 15.22947951 87912
SUCHAI                  
1 42788U 17036Z   19023.15531799  .00000938  00000-0  43407-4 0  9993
2 42788  97.3735  84.2331 0012488  32.0213 328.1780 15.22499489 88053
SKCUBE                  
1 42789U 17036AA  19022.70272382  .00000862  00000-0  40220-4 0  9990
2 42789  97.3733  83.7578 0012381  33.6417 326.5603 15.22425441 87900
VZLUSAT-1               
1 42790U 17036AB  19022.91807456  .00001170  00000-0  52726-4 0  9998
2 42790  97.3743  84.2541 0011926  32.8973 327.3004 15.22952117 87955
ROBUSTA-1B              
1 42792U 17036AD  19022.91214568  .00000877  00000-0  40693-4 0  9999
2 42792  97.3732  84.0743 0011963  34.0307 326.1694 15.22585182 87959
CICERO 6                
1 42793U 17036AE  19023.66206996  .00000711  00000-0  33837-4 0  9998
2 42793  97.3718  84.7014 0011187  33.3719 326.8221 15.22298261 88132
D-SAT                   
1 42794U 17036AF  19023.17546837  .00000046  00000-0  97769-5 0  9992
2 42794  97.5620  74.1510 0125252 269.8622  88.8244 14.91006633 86503
TOKI                    
1 42820U 98067MU  19023.23672079  .00055902  00000-0  26413-3 0  9997
2 42820  51.6319 311.0715 0000631 118.6960 241.4106 15.82472277 88517
MAZAALAI (NUMSAT-1)     
1 42822U 98067MW  19023.27591750  .00055079  00000-0  27180-3 0  9996
2 42822  51.6336 312.1161 0000446  63.0216 297.0832 15.81542729 88484
BRAC ONNESHA            
1 42823U 98067MX  19023.24059279  .00056460  00000-0  27228-3 0  9997
2 42823  51.6307 311.8781 0001101 329.8671  30.2268 15.82028723 88488
NIGERIAEDUSAT-1         
1 42824U 98067MY  19023.25426933  .00050843  00000-0  25388-3 0  9998
2 42824  51.6341 312.7810 0001652 349.4104  10.6863 15.81319718 88467
CORVUS BC2              
1 42846U 17042X   19023.67136482  .00000262  00000-0  31199-4 0  9997
2 42846  97.5815 283.3488 0009649 173.1276 187.0078 14.91912828 83245
CORVUS BC1              
1 42847U 17042Y   19023.50024239 -.00000037  00000-0  16248-5 0  9996
2 42847  97.5817 283.2670 0009290 172.5913 187.5446 14.92012328 83211
SILU-1 (SILKROAD 1)     
1 42903U 17021F   19023.55122002  .00051343  91371-5  18559-3 0  9994
2 42903  42.7719  59.8741 0015076  73.1983  53.6916 15.88459298 84757
MIRATA                  
1 43015U 17073C   19023.53158616  .00000859  00000-0  73598-4 0  9999
2 43015  97.7171 310.4870 0255097 274.0440  83.1653 14.78658507 63690
MAKERSAT 0              
1 43016U 17073D   19022.78171792  .00000555  00000-0  49548-4 0  9997
2 43016  97.7203 309.9471 0256898 276.6602  80.5434 14.78505969 63573
ASTERIA                 
1 43020U 98067NH  19023.37029382  .00016040  00000-0  16577-3 0  9998
2 43020  51.6432 343.9401 0001341 293.0342  67.0512 15.64926099 66901
DELLINGR (RBLE)         
1 43021U 98067NJ  19023.44436182  .00006479  00000-0  82945-4 0  9995
2 43021  51.6404 349.6117 0001388 271.8788  88.2046 15.60589381 66831
OSIRIS-3U               
1 43027U 98067NL  19023.66227878  .00161833  00000-0  57527-3 0  9998
2 43027  51.6348 320.0678 0002560 142.8259 217.2923 15.87956169 67124
AEROCUBE 7B             
1 43042U 17071F   19023.56311918  .00002473  00000-0  70466-4 0  9991
2 43042  51.6391  46.8200 0004829 352.4953   7.5958 15.40213999 63550
